{"type":"FeatureCollection","features":[{"type":"Feature","geometry":{"type":"Point","coordinates":[7.249464,47.133403]},"properties":{"name":"Biel"}},{"type":"Feature","geometry":{"type":"Point","coordinates":[7.238349,47.126819]},"properties":{"name":"Nidau"}},{"type":"Feature","geometry":{"type":"Point","coordinates":[7.209713,47.093135]},"properties":{"name":"Sutz"}},{"type":"Feature","geometry":{"type":"Point","coordinates":[7.257854,47.16572]},"properties":{"name":"Frinvilier"}},{"type":"Feature","geometry":{"type":"Point","coordinates":[7.059274,47.132958]},"properties":{"name":"Chasseral"}},{"type":"Feature","geometry":{"type":"Point","coordinates":[7.079626,47.112035]},"properties":{"name":"Nods"}},{"type":"Feature","geometry":{"type":"Point","coordinates":[6.641992,46.778628]},"properties":{"name":"Yverdon-les-Bains"}},{"type":"Feature","geometry":{"type":"Point","coordinates":[6.745337,46.799303]},"properties":{"name":"Yvonand"}},{"type":"Feature","geometry":{"type":"Point","coordinates":[6.938365,46.821035]},"properties":{"name":"Payerne"}},{"type":"Feature","geometry":{"type":"Point","coordinates":[6.837208,46.708588]},"properties":{"name":"Lucens"}},{"type":"Feature","geometry":{"type":"Point","coordinates":[6.798102,46.669583]},"properties":{"name":"Moudon"}},{"type":"Feature","geometry":{"type":"Point","coordinates":[6.629133,46.517074]},"properties":{"name":"Lausanne"}},{"type":"Feature","geometry":{"type":"Point","coordinates":[6.578879,46.537078]},"properties":{"name":"Renens"}},{"type":"Feature","geometry":{"type":"Point","coordinates":[6.564669,46.53034]},"properties":{"name":"Ecublens"}},{"type":"Feature","geometry":{"type":"Point","coordinates":[6.572603,46.513346]},"properties":{"name":"Saint-Sulpice"}},{"type":"Feature","geometry":{"type":"Point","coordinates":[6.532155,46.510503]},"properties":{"name":"Préverenges"}},{"type":"Feature","geometry":{"type":"Point","coordinates":[6.497179,46.508081]},"properties":{"name":"Morges"}},{"type":"Feature","geometry":{"type":"Point","coordinates":[6.146679,46.208349]},"properties":{"name":"Genève"}},{"type":"Feature","geometry":{"type":"Point","coordinates":[6.126809,45.89864]},"properties":{"name":"Annecy"}},{"type":"Feature","geometry":{"type":"Point","coordinates":[6.142119,45.87829]},"properties":{"name":"Sévrier"}},{"type":"Feature","geometry":{"type":"Point","coordinates":[6.20926,45.810308]},"properties":{"name":"Doussard"}},{"type":"Feature","geometry":{"type":"Point","coordinates":[6.183586,45.901925]},"properties":{"name":"Mont Veyrier"}},{"type":"Feature","geometry":{"type":"Point","coordinates":[9.342713,47.249261]},"properties":{"name":"Säntis"}},{"type":"Feature","geometry":{"type":"Point","coordinates":[10.033302,46.653369]},"properties":{"name":"Brail"}},{"type":"Feature","geometry":{"type":"Point","coordinates":[8.72705,47.49843]},"properties":{"name":"Winterthur"}},{"type":"Feature","geometry":{"type":"Point","coordinates":[8.847427,47.417017]},"properties":{"name":"Wila"}},{"type":"Feature","geometry":{"type":"Point","coordinates":[8.815005,47.376216]},"properties":{"name":"Isikon"}},{"type":"Feature","geometry":{"type":"Point","coordinates":[9.385478,47.255772]},"properties":{"name":"Meglisalp"}},{"type":"Feature","geometry":{"type":"Point","coordinates":[9.456707,47.29668]},"properties":{"name":"Brülisau"}},{"type":"Feature","geometry":{"type":"Point","coordinates":[9.31837,47.25615]},"properties":{"name":"Schwägalp"}},{"type":"Feature","geometry":{"type":"Point","coordinates":[10.090427,46.697964]},"properties":{"name":"Zernez"}},{"type":"Feature","geometry":{"type":"Point","coordinates":[10.151968,46.775318]},"properties":{"name":"Guarda"}},{"type":"Feature","geometry":{"type":"Point","coordinates":[10.201321,46.774348]},"properties":{"name":"Ardez"}},{"type":"Feature","geometry":{"type":"Point","coordinates":[10.210505,46.645076]},"properties":{"name":"Munt La Schera"}},{"type":"Feature","geometry":{"type":"Point","coordinates":[10.096951,46.664282]},"properties":{"name":"Murtaröl"}},{"type":"Feature","geometry":{"type":"Point","coordinates":[10.205355,46.664517]},"properties":{"name":"Il Fuorn"}},{"type":"Feature","geometry":{"type":"Point","coordinates":[10.42403,46.60141]},"properties":{"name":"Santa Maria"}},{"type":"Feature","geometry":{"type":"Point","coordinates":[10.448213,46.629341]},"properties":{"name":"Müstair"}},{"type":"Feature","geometry":{"type":"Point","coordinates":[9.984899,46.612363]},"properties":{"name":"S-chanf"}},{"type":"Feature","geometry":{"type":"Point","coordinates":[10.021806,46.637916]},"properties":{"name":"Cinuos-chel"}},{"type":"Feature","geometry":{"type":"Point","coordinates":[9.895549,46.491124]},"properties":{"name":"Pontresina"}},{"type":"Feature","geometry":{"type":"Point","coordinates":[10.05425,46.324735]},"properties":{"name":"Poschiavo"}},{"type":"Feature","geometry":{"type":"Point","coordinates":[10.0831,46.291814]},"properties":{"name":"Le Prese"}},{"type":"Feature","geometry":{"type":"Point","coordinates":[7.44755,46.947904]},"properties":{"name":"Bern"}},{"type":"Feature","geometry":{"type":"Point","coordinates":[7.585319,47.087021]},"properties":{"name":"Kirchberg"}},{"type":"Feature","geometry":{"type":"Point","coordinates":[7.539352,47.208531]},"properties":{"name":"Solothurn"}},{"type":"Feature","geometry":{"type":"Point","coordinates":[8.539982,47.377895]},"properties":{"name":"Zürich"}},{"type":"Feature","geometry":{"type":"Point","coordinates":[7.150941,46.803188]},"properties":{"name":"Fribourg"}},{"type":"Feature","geometry":{"type":"Point","coordinates":[7.288334,46.670098]},"properties":{"name":"Schwarzsee"}},{"type":"Feature","geometry":{"type":"Point","coordinates":[7.259002,46.677975]},"properties":{"name":"Schwyberg"}},{"type":"Feature","geometry":{"type":"Point","coordinates":[6.740799,46.511035]},"properties":{"name":"Tour de Gourze"}},{"type":"Feature","geometry":{"type":"Point","coordinates":[6.777363,46.477561]},"properties":{"name":"Rivaz"}},{"type":"Feature","geometry":{"type":"Point","coordinates":[8.09804,47.170752]},"properties":{"name":"Sursee"}},{"type":"Feature","geometry":{"type":"Point","coordinates":[8.191536,47.135695]},"properties":{"name":"Sempach"}},{"type":"Feature","geometry":{"type":"Point","coordinates":[7.34936,47.122417]},"properties":{"name":"Dotzigenberg"}},{"type":"Feature","geometry":{"type":"Point","coordinates":[6.731679,46.487549]},"properties":{"name":"Cully"}},{"type":"Feature","geometry":{"type":"Point","coordinates":[6.641707,46.61568]},"properties":{"name":"Le Talent"}},{"type":"Feature","geometry":{"type":"Point","coordinates":[7.261512,47.160701]},"properties":{"name":"Taubenlochschlucht"}},{"type":"Feature","geometry":{"type":"Point","coordinates":[10.077038,46.595793]},"properties":{"name":"Alp Trupchun"}},{"type":"Feature","geometry":{"type":"Point","coordinates":[7.112478,46.142928]},"properties":{"name":"Fully"}},{"type":"Feature","geometry":{"type":"Point","coordinates":[6.666105,46.565632]},"properties":{"name":"Le Flon"}},{"type":"Feature","geometry":{"type":"Point","coordinates":[7.147894,47.095655]},"properties":{"name":"Twannbachschlucht"}},{"type":"Feature","geometry":{"type":"Point","coordinates":[7.203019,47.139731]},"properties":{"name":"Magglingen"}},{"type":"Feature","geometry":{"type":"Point","coordinates":[4.876996,52.361489]},"properties":{"name":"Amsterdam"}},{"type":"Feature","geometry":{"type":"Point","coordinates":[4.475877,51.924433]},"properties":{"name":"Rotterdam"}},{"type":"Feature","geometry":{"type":"Point","coordinates":[4.305262,52.079565]},"properties":{"name":"Den Haag"}},{"type":"Feature","geometry":{"type":"Point","coordinates":[4.268682,52.10868]},"properties":{"name":"Scheveningen"}},{"type":"Feature","geometry":{"type":"Point","coordinates":[2.340453,48.848599]},"properties":{"name":"Paris"}},{"type":"Feature","geometry":{"type":"Point","coordinates":[7.707655,47.193544]},"properties":{"name":"Herzogenbuchsee"}},{"type":"Feature","geometry":{"type":"Point","coordinates":[7.238998,47.11224]},"properties":{"name":"Birlig"}},{"type":"Feature","geometry":{"type":"Point","coordinates":[7.254868,47.106552]},"properties":{"name":"Bellmund"},"id":70},{"type":"Feature","geometry":{"type":"Point","coordinates":[6.962607,47.138138]},"properties":{"name":"Sonvilier"}},{"type":"Feature","geometry":{"type":"Point","coordinates":[7.045766,47.238933]},"properties":{"name":"Étang de la Gruère"}},{"type":"Feature","geometry":{"type":"Point","coordinates":[6.999809,47.250995]},"properties":{"name":"Saignelégier"}},{"type":"Feature","geometry":{"type":"Point","coordinates":[7.167281,46.159677]},"properties":{"name":"La Sarvaz"}},{"type":"Feature","geometry":{"type":"Point","coordinates":[7.396937,46.178772]},"properties":{"name":"Les Masses"}},{"type":"Feature","geometry":{"type":"Point","coordinates":[8.557888,47.37024]},"properties":{"name":"Zürich-Hottingen"}},{"type":"Feature","geometry":{"type":"Point","coordinates":[8.539354,47.383318]},"properties":{"name":"Dynamo"}},{"type":"Feature","geometry":{"type":"Point","coordinates":[6.602193,46.528074]},"properties":{"name":"Malley"}},{"type":"Feature","geometry":{"type":"Point","coordinates":[7.000952,46.35263]},"properties":{"name":"Leysin"}},{"type":"Feature","geometry":{"type":"Point","coordinates":[7.549555,47.133531]},"properties":{"name":"Utzenstorf"}},{"type":"Feature","geometry":{"type":"Point","coordinates":[8.843538,47.367039]},"properties":{"name":"Dürstelen"}},{"type":"Feature","geometry":{"type":"Point","coordinates":[8.979612,47.325672]},"properties":{"name":"Schnebelhorn"}},{"type":"Feature","geometry":{"type":"Point","coordinates":[8.781311,47.327199]},"properties":{"name":"Wetzikon"}},{"type":"Feature","geometry":{"type":"Point","coordinates":[7.178493,47.060154]},"properties":{"name":"Hagneck"}},{"type":"Feature","geometry":{"type":"Point","coordinates":[8.941712,47.370905]},"properties":{"name":"Hörnli"}},{"type":"Feature","geometry":{"type":"Point","coordinates":[-71.359828,-34.643575]},"properties":{"name":"Cinthia & Family"}},{"type":"Feature","geometry":{"type":"Point","coordinates":[-71.467438,-34.68786]},"properties":{"name":"Campos Santa Cruz"}},{"type":"Feature","geometry":{"type":"Point","coordinates":[-71.55992,-34.703209]},"properties":{"name":"Vina Santa Cruz"}},{"type":"Feature","geometry":{"type":"Point","coordinates":[-70.296772,-18.459094]},"properties":{"name":"Arica (Patty)"}},{"type":"Feature","geometry":{"type":"Point","coordinates":[-70.313895,-18.472211]},"properties":{"name":"Arica (Andy)"}},{"type":"Feature","geometry":{"type":"Point","coordinates":[-70.282663,-18.494424]},"properties":{"name":"Arica (Victor)"}},{"type":"Feature","geometry":{"type":"Point","coordinates":[-70.174677,-18.51932]},"properties":{"name":"San Miguel de Azapa"}},{"type":"Feature","geometry":{"type":"Point","coordinates":[-70.220382,-18.520937]},"properties":{"name":"Mirador Alta de Ramirez"}},{"type":"Feature","geometry":{"type":"Point","coordinates":[-70.066262,-18.452687]},"properties":{"name":"Poconchile"}},{"type":"Feature","geometry":{"type":"Point","coordinates":[-69.586651,-18.337458]},"properties":{"name":"Zapajuira"}},{"type":"Feature","geometry":{"type":"Point","coordinates":[-69.559245,-18.196321]},"properties":{"name":"Putre"}},{"type":"Feature","geometry":{"type":"Point","coordinates":[-69.26827,-18.201973]},"properties":{"name":"Parinacota"}},{"type":"Feature","geometry":{"type":"Point","coordinates":[-69.17593,-18.250342]},"properties":{"name":"Lago Chungara"}},{"type":"Feature","geometry":{"type":"Point","coordinates":[-70.400509,-23.645202]},"properties":{"name":"Antofagasta"}},{"type":"Feature","geometry":{"type":"Point","coordinates":[-71.247899,-29.898903]},"properties":{"name":"La Serena"}},{"type":"Feature","geometry":{"type":"Point","coordinates":[-71.335441,-29.954897]},"properties":{"name":"Coquimbo"}},{"type":"Feature","geometry":{"type":"Point","coordinates":[-70.684962,-29.989546]},"properties":{"name":"Observatorio Cerro Mamalluca"}},{"type":"Feature","geometry":{"type":"Point","coordinates":[-71.627018,-33.043898]},"properties":{"name":"Valparaiso"}},{"type":"Feature","geometry":{"type":"Point","coordinates":[-71.568493,-33.021025]},"properties":{"name":"Vina del mar"}},{"type":"Feature","geometry":{"type":"Point","coordinates":[-70.72158,-33.459381]},"properties":{"name":"Gladys"}},{"type":"Feature","geometry":{"type":"Point","coordinates":[-70.864134,-33.466998]},"properties":{"name":"Jaime & Mariela"}},{"type":"Feature","geometry":{"type":"Point","coordinates":[-72.453096,-35.980472]},"properties":{"name":"Campos Gladys"}},{"type":"Feature","geometry":{"type":"Point","coordinates":[-72.518102,-35.493137]},"properties":{"name":"Playa Sur"}},{"type":"Feature","geometry":{"type":"Point","coordinates":[-71.042372,-32.827484]},"properties":{"name":"Campos Romeral"}},{"type":"Feature","geometry":{"type":"Point","coordinates":[8.577833,47.374887]},"properties":{"name":"Dolder"}},{"type":"Feature","geometry":{"type":"Point","coordinates":[6.628318,46.505275]},"properties":{"name":"Ouchy"}},{"type":"Feature","geometry":{"type":"Point","coordinates":[7.100945,46.328261]},"properties":{"name":"Villars-sur-Ollon"}},{"type":"Feature","geometry":{"type":"Point","coordinates":[8.31032,47.050271]},"properties":{"name":"Luzern"}},{"type":"Feature","geometry":{"type":"Point","coordinates":[8.39937,47.088679]},"properties":{"name":"Udligenswil"}},{"type":"Feature","geometry":{"type":"Point","coordinates":[8.465663,47.133301]},"properties":{"name":"Risch"}},{"type":"Feature","geometry":{"type":"Point","coordinates":[8.480163,47.178191]},"properties":{"name":"Cham"}},{"type":"Feature","geometry":{"type":"Point","coordinates":[8.586406,47.137271]},"properties":{"name":"Unterägeri"}},{"type":"Feature","geometry":{"type":"Point","coordinates":[8.599741,47.146853]},"properties":{"name":"Kistenpass"}},{"type":"Feature","geometry":{"type":"Point","coordinates":[8.663599,47.141555]},"properties":{"name":"Raten"}},{"type":"Feature","geometry":{"type":"Point","coordinates":[8.751383,47.126673]},"properties":{"name":"Einsiedeln"}},{"type":"Feature","geometry":{"type":"Point","coordinates":[6.549219,46.807726]},"properties":{"name":"Vuiteboeuf"}},{"type":"Feature","geometry":{"type":"Point","coordinates":[6.502061,46.820077]},"properties":{"name":"Sainte-Croix"}},{"type":"Feature","geometry":{"type":"Point","coordinates":[8.388855,47.313282]},"properties":{"name":"Oberlunkhofen"}},{"type":"Feature","geometry":{"type":"Point","coordinates":[7.906026,46.834809]},"properties":{"name":"Marbachegg"}},{"type":"Feature","geometry":{"type":"Point","coordinates":[6.844236,46.477879]},"properties":{"name":"Jongny"}},{"type":"Feature","geometry":{"type":"Point","coordinates":[6.831479,46.481905]},"properties":{"name":"Le Mont-Pélerin"}},{"type":"Feature","geometry":{"type":"Point","coordinates":[8.540486,47.379046]},"properties":{"name":"Landesmuseum"}},{"type":"Feature","geometry":{"type":"Point","coordinates":[7.900372,47.35068]},"properties":{"name":"Olten"}},{"type":"Feature","geometry":{"type":"Point","coordinates":[7.971075,47.486512]},"properties":{"name":"Wittnau"}},{"type":"Feature","geometry":{"type":"Point","coordinates":[7.997586,47.458461]},"properties":{"name":"Wölflinswil"}},{"type":"Feature","geometry":{"type":"Point","coordinates":[7.444943,46.943077]},"properties":{"name":"Marzili"}},{"type":"Feature","geometry":{"type":"Point","coordinates":[7.342386,46.00282]},"properties":{"name":"Mauvoisin"}},{"type":"Feature","geometry":{"type":"Point","coordinates":[7.243896,46.057084]},"properties":{"name":"Champsec"}},{"type":"Feature","geometry":{"type":"Point","coordinates":[7.095001,46.96296]},"properties":{"name":"Mont Vully"}},{"type":"Feature","geometry":{"type":"Point","coordinates":[7.050809,46.904967]},"properties":{"name":"Avenches"}},{"type":"Feature","geometry":{"type":"Point","coordinates":[6.205787,45.830343]},"properties":{"name":"Duingt"}},{"type":"Feature","geometry":{"type":"Point","coordinates":[7.277938,47.13079]},"properties":{"name":"Sandgrube"}},{"type":"Feature","geometry":{"type":"Point","coordinates":[6.096575,45.787786]},"properties":{"name":"Semnoz"}},{"type":"Feature","geometry":{"type":"Point","coordinates":[6.109954,46.231153]},"properties":{"name":"Genève-Aéroport"}},{"type":"Feature","geometry":{"type":"Point","coordinates":[6.547884,46.517591]},"properties":{"name":"Dechetterie Ecublens"}},{"type":"Feature","geometry":{"type":"Point","coordinates":[8.038446,46.623174]},"properties":{"name":"Grindelwald"}},{"type":"Feature","geometry":{"type":"Point","coordinates":[7.991223,46.65032]},"properties":{"name":"Bussalp"}},{"type":"Feature","geometry":{"type":"Point","coordinates":[8.053601,46.659452]},"properties":{"name":"First"}},{"type":"Feature","geometry":{"type":"Point","coordinates":[7.223304,47.118371]},"properties":{"name":"Cruchon"}},{"type":"Feature","geometry":{"type":"Point","coordinates":[8.801808,47.374407]},"properties":{"name":"Luppmen-Tobel"}},{"type":"Feature","geometry":{"type":"Point","coordinates":[7.140663,47.076464]},"properties":{"name":"St.Petersinsel"}},{"type":"Feature","geometry":{"type":"Point","coordinates":[7.277112,47.172532]},"properties":{"name":"Bözingenbern"}},{"type":"Feature","geometry":{"type":"Point","coordinates":[7.252758,47.104573]},"properties":{"name":"Jäissbärg"},"id":148},{"type":"Feature","geometry":{"type":"Point","coordinates":[9.010811,46.17031]},"properties":{"name":"Giubiasco"}},{"type":"Feature","geometry":{"type":"Point","coordinates":[9.022297,46.19268]},"properties":{"name":"Bellinzona"}},{"type":"Feature","geometry":{"type":"Point","coordinates":[9.03883,46.187511]},"properties":{"name":"Artore"}},{"type":"Feature","geometry":{"type":"Point","coordinates":[7.162024,47.096214]},"properties":{"name":"Twann"}},{"type":"Feature","geometry":{"type":"Point","coordinates":[7.195745,47.11546]},"properties":{"name":"Tüscherz"}},{"type":"Feature","geometry":{"type":"Point","coordinates":[6.134834,45.875721]},"properties":{"name":"Croix de Chuguet"}},{"type":"Feature","geometry":{"type":"Point","coordinates":[6.132517,45.869334]},"properties":{"name":"Croix du Crêt"}},{"type":"Feature","geometry":{"type":"Point","coordinates":[6.203467,45.86391]},"properties":{"name":"Chateau de Menthon"}},{"type":"Feature","geometry":{"type":"Point","coordinates":[6.154178,45.848812]},"properties":{"name":"Ponton de Famille"}},{"type":"Feature","geometry":{"type":"Point","coordinates":[7.427573,46.943912]},"properties":{"name":"Neue Wohnung"}},{"type":"Feature","geometry":{"type":"Point","coordinates":[7.469239,46.909599]},"properties":{"name":"Squash-Center Kehrsatz"}},{"type":"Feature","geometry":{"type":"Point","coordinates":[8.835669,47.391784]},"properties":{"name":"Ravensbühl"}},{"type":"Feature","geometry":{"type":"Point","coordinates":[8.846118,47.452034]},"properties":{"name":"Girenbad"}},{"type":"Feature","geometry":{"type":"Point","coordinates":[8.866525,47.460101]},"properties":{"name":"Schauenburg"}},{"type":"Feature","geometry":{"type":"Point","coordinates":[8.781386,47.365826]},"properties":{"name":"Stööö"}},{"type":"Feature","geometry":{"type":"Point","coordinates":[8.703843,47.256089]},"properties":{"name":"Stine (Männedorf)"}},{"type":"Feature","geometry":{"type":"Point","coordinates":[8.652254,47.271244]},"properties":{"name":"Gaby (Meilen)"}},{"type":"Feature","geometry":{"type":"Point","coordinates":[7.493877,47.235888]},"properties":{"name":"Oberdorf"}},{"type":"Feature","geometry":{"type":"Point","coordinates":[7.486839,47.248941]},"properties":{"name":"Hinterer Weissenstein"}},{"type":"Feature","geometry":{"type":"Point","coordinates":[7.508211,47.251737]},"properties":{"name":"Weissenstein"}},{"type":"Feature","geometry":{"type":"Point","coordinates":[7.463568,46.941015]},"properties":{"name":"Tramdepot Burgernziel"}},{"type":"Feature","geometry":{"type":"Point","coordinates":[7.466395,46.942301]},"properties":{"name":"Bruder Klaus-Kirche"}},{"type":"Feature","geometry":{"type":"Point","coordinates":[6.825117,47.098613]},"properties":{"name":"La Chaux-de-Fonds"}},{"type":"Feature","geometry":{"type":"Point","coordinates":[6.56814,46.518433]},"properties":{"name":"EPFL Rolex Learning Center"}},{"type":"Feature","geometry":{"type":"Point","coordinates":[6.599463,46.526262]},"properties":{"name":"Théatre Kléber Méleau"}},{"type":"Feature","geometry":{"type":"Point","coordinates":[7.005458,47.21059]},"properties":{"name":"Les Breuleux"}},{"type":"Feature","geometry":{"type":"Point","coordinates":[6.993839,47.158622]},"properties":{"name":"Mont Soleil Funiculaire"}},{"type":"Feature","geometry":{"type":"Point","coordinates":[7.020221,47.182086]},"properties":{"name":"Mont Soleil"}},{"type":"Feature","geometry":{"type":"Point","coordinates":[7.837243,46.194446]},"properties":{"name":"Grächen"}},{"type":"Feature","geometry":{"type":"Point","coordinates":[7.867563,46.205498]},"properties":{"name":"Hannigalp"}},{"type":"Feature","geometry":{"type":"Point","coordinates":[7.873464,46.192354]},"properties":{"name":"Wannihorn"}},{"type":"Feature","geometry":{"type":"Point","coordinates":[8.171189,47.415805]},"properties":{"name":"Wildegg"}},{"type":"Feature","geometry":{"type":"Point","coordinates":[7.439262,46.946593]},"properties":{"name":"Kino Rex"}},{"type":"Feature","geometry":{"type":"Point","coordinates":[7.26693,47.137593]},"properties":{"name":"Linde"}},{"type":"Feature","geometry":{"type":"Point","coordinates":[7.27325,47.135505]},"properties":{"name":"Heidenstein"}},{"type":"Feature","geometry":{"type":"Point","coordinates":[7.285781,47.160686]},"properties":{"name":"Lörtscher"}},{"type":"Feature","geometry":{"type":"Point","coordinates":[7.342665,47.364118]},"properties":{"name":"Delémont"}},{"type":"Feature","geometry":{"type":"Point","coordinates":[7.577643,47.549323]},"properties":{"name":"Dave & Rebekka"}},{"type":"Feature","geometry":{"type":"Point","coordinates":[7.254227,47.132659]},"properties":{"name":"Grüens Huus"}},{"type":"Feature","geometry":{"type":"Point","coordinates":[7.337644,47.02676]},"properties":{"name":"Frienisberg"}},{"type":"Feature","geometry":{"type":"Point","coordinates":[7.236021,47.132374]},"properties":{"name":"Gymer-Turnhalle"}},{"type":"Feature","geometry":{"type":"Point","coordinates":[7.247179,47.141979]},"properties":{"name":"Le Singe"}},{"type":"Feature","geometry":{"type":"Point","coordinates":[7.424722,46.940035]},"properties":{"name":"Tischtennis Pestalozzi"}},{"type":"Feature","geometry":{"type":"Point","coordinates":[7.424837,46.947713]},"properties":{"name":"Inselspital"}},{"type":"Feature","geometry":{"type":"Point","coordinates":[7.42878,46.945604]},"properties":{"name":"Physio Effingerhaus"}},{"type":"Feature","geometry":{"type":"Point","coordinates":[7.427793,46.943355]},"properties":{"name":"Dr. Bianchi"}},{"type":"Feature","geometry":{"type":"Point","coordinates":[7.425776,46.941612]},"properties":{"name":"Gelateria di Berna"}},{"type":"Feature","geometry":{"type":"Point","coordinates":[7.458797,46.947102]},"properties":{"name":"Bärenpark"}},{"type":"Feature","geometry":{"type":"Point","coordinates":[7.431162,46.944597]},"properties":{"name":"Schwarztoranlage"}},{"type":"Feature","geometry":{"type":"Point","coordinates":[7.429038,46.94378]},"properties":{"name":"Kolpinghaus"}},{"type":"Feature","geometry":{"type":"Point","coordinates":[7.425352,46.923311]},"properties":{"name":"Blinzern"}},{"type":"Feature","geometry":{"type":"Point","coordinates":[7.233169,47.128199]},"properties":{"name":"Barkehäfeli"}},{"type":"Feature","geometry":{"type":"Point","coordinates":[7.465403,46.95946]},"properties":{"name":"BEA"}},{"type":"Feature","geometry":{"type":"Point","coordinates":[7.430057,46.945674]},"properties":{"name":"Shrek"}},{"type":"Feature","geometry":{"type":"Point","coordinates":[7.428254,46.938546]},"properties":{"name":"Süder"}},{"type":"Feature","geometry":{"type":"Point","coordinates":[7.597936,46.939762]},"properties":{"name":"Rüttihubelbad"}},{"type":"Feature","geometry":{"type":"Point","coordinates":[8.149409,47.900348]},"properties":{"name":"Titisee"}},{"type":"Feature","geometry":{"type":"Point","coordinates":[8.10614,47.905577]},"properties":{"name":"Hinterzarten"}},{"type":"Feature","geometry":{"type":"Point","coordinates":[8.177218,47.81693]},"properties":{"name":"Schluchsee"}},{"type":"Feature","geometry":{"type":"Point","coordinates":[8.132624,47.833252]},"properties":{"name":"Aha"}},{"type":"Feature","geometry":{"type":"Point","coordinates":[7.852349,47.992758]},"properties":{"name":"Freiburg im Breisgau"}},{"type":"Feature","geometry":{"type":"Point","coordinates":[7.407435,46.934257]},"properties":{"name":"Könizbergwald"}},{"type":"Feature","geometry":{"type":"Point","coordinates":[6.862357,47.072548]},"properties":{"name":"Chalet Vue des Alpes"}},{"type":"Feature","geometry":{"type":"Point","coordinates":[7.450506,46.943544]},"properties":{"name":"Restaurant Kirchenfeld"}},{"type":"Feature","geometry":{"type":"Point","coordinates":[7.425637,46.941923]},"properties":{"name":"Caecilienplatz"}},{"type":"Feature","geometry":{"type":"Point","coordinates":[7.416072,46.941826]},"properties":{"name":"Familiengarten"}},{"type":"Feature","geometry":{"type":"Point","coordinates":[7.405236,46.947655]},"properties":{"name":"Weyerli"}},{"type":"Feature","geometry":{"type":"Point","coordinates":[7.674784,46.690999]},"properties":{"name":"Relay for Life"}},{"type":"Feature","geometry":{"type":"Point","coordinates":[7.42259,46.943835]},"properties":{"name":"Veielihubu"}},{"type":"Feature","geometry":{"type":"Point","coordinates":[8.486166,47.05674]},"properties":{"name":"Rigi-Kulm"}},{"type":"Feature","geometry":{"type":"Point","coordinates":[8.474085,47.053561]},"properties":{"name":"Rigi Staffel"}},{"type":"Feature","geometry":{"type":"Point","coordinates":[8.49241,47.051134]},"properties":{"name":"Alp Chäserenholz"}},{"type":"Feature","geometry":{"type":"Point","coordinates":[8.550442,47.056674]},"properties":{"name":"Daniel"}},{"type":"Feature","geometry":{"type":"Point","coordinates":[8.846848,47.411892]},"properties":{"name":"Bodenweiher"}},{"type":"Feature","geometry":{"type":"Point","coordinates":[8.768742,47.366941]},"properties":{"name":"Pfäffiker Schützenhaus"}},{"type":"Feature","geometry":{"type":"Point","coordinates":[7.43352,46.946582]},"properties":{"name":"Kocherpark"}},{"type":"Feature","geometry":{"type":"Point","coordinates":[7.435818,46.947435]},"properties":{"name":"Zivilstandsamt"}},{"type":"Feature","geometry":{"type":"Point","coordinates":[7.457212,46.94664]},"properties":{"name":"Cinématte"}},{"type":"Feature","geometry":{"type":"Point","coordinates":[6.97928,47.117219]},"properties":{"name":"Le Spitou"}},{"type":"Feature","geometry":{"type":"Point","coordinates":[6.873429,46.966555]},"properties":{"name":"Paradis Plage"},"id":228},{"type":"Feature","geometry":{"type":"Point","coordinates":[7.445372,46.936114]},"properties":{"name":"Grottino"}},{"type":"Feature","geometry":{"type":"Point","coordinates":[7.438651,46.939096]},"properties":{"name":"Kita Yeladim"}},{"type":"Feature","geometry":{"type":"Point","coordinates":[9.339908,47.200772]},"properties":{"name":"Wildhaus"}},{"type":"Feature","geometry":{"type":"Point","coordinates":[9.330525,47.187044]},"properties":{"name":"Schwendisee"}},{"type":"Feature","geometry":{"type":"Point","coordinates":[9.376874,47.162072]},"properties":{"name":"Voralp"}},{"type":"Feature","geometry":{"type":"Point","coordinates":[9.312758,47.154733]},"properties":{"name":"Chäserrugg"}},{"type":"Feature","geometry":{"type":"Point","coordinates":[9.305205,47.153507]},"properties":{"name":"Hinterrugg"}},{"type":"Feature","geometry":{"type":"Point","coordinates":[9.3437,47.213155]},"properties":{"name":"Gamplüt"}},{"type":"Feature","geometry":{"type":"Point","coordinates":[6.202437,45.843114]},"properties":{"name":"Roc de Chère"}},{"type":"Feature","geometry":{"type":"Point","coordinates":[6.210752,45.840221]},"properties":{"name":"Talloires"}},{"type":"Feature","geometry":{"type":"Point","coordinates":[7.431715,46.936433]},"properties":{"name":"Kita Matahari"}},{"type":"Feature","geometry":{"type":"Point","coordinates":[7.449964,46.941729]},"properties":{"name":"Museum für Kommunikation"}},{"type":"Feature","geometry":{"type":"Point","coordinates":[7.416222,46.926513]},"properties":{"name":"Balu Kinderkleiderbörse"}},{"type":"Feature","geometry":{"type":"Point","coordinates":[7.427841,46.958168]},"properties":{"name":"Lindenhofspital"}},{"type":"Feature","geometry":{"type":"Point","coordinates":[7.414618,46.925835]},"properties":{"name":"Landi Köniz"}},{"type":"Feature","geometry":{"type":"Point","coordinates":[7.390376,46.946366]},"properties":{"name":"Entsorgungshof Fellerstrasse"}},{"type":"Feature","geometry":{"type":"Point","coordinates":[6.169971,45.83774]},"properties":{"name":"St.Jorioz Minigolf"}},{"type":"Feature","geometry":{"type":"Point","coordinates":[7.451885,46.946575]},"properties":{"name":"Münsterplattform"}},{"type":"Feature","geometry":{"type":"Point","coordinates":[7.448956,46.933711]},"properties":{"name":"Restaurant Dählhölzli"}},{"type":"Feature","geometry":{"type":"Point","coordinates":[7.470751,46.929825]},"properties":{"name":"Elfenau"}},{"type":"Feature","geometry":{"type":"Point","coordinates":[7.062321,46.090436]},"properties":{"name":"Le Moulin Semblanet"}},{"type":"Feature","geometry":{"type":"Point","coordinates":[7.43331,46.94305]},"properties":{"name":"Kita Topolina"}},{"type":"Feature","geometry":{"type":"Point","coordinates":[8.845598,47.216682]},"properties":{"name":"Stampf"}},{"type":"Feature","geometry":{"type":"Point","coordinates":[8.894323,47.21904]},"properties":{"name":"Bollingen"}},{"type":"Feature","geometry":{"type":"Point","coordinates":[7.443768,46.946271]},"properties":{"name":"Bundesterrasse"}},{"type":"Feature","geometry":{"type":"Point","coordinates":[6.605935,46.534412]},"properties":{"name":"Ze Pedro & Natercia"}},{"type":"Feature","geometry":{"type":"Point","coordinates":[7.434826,46.941773]},"properties":{"name":"Monbijoupark"}},{"type":"Feature","geometry":{"type":"Point","coordinates":[7.431538,46.9412]},"properties":{"name":"Eigerplatz"}},{"type":"Feature","geometry":{"type":"Point","coordinates":[7.439654,46.919449]},"properties":{"name":"Gurten"}},{"type":"Feature","geometry":{"type":"Point","coordinates":[7.438935,46.948182]},"properties":{"name":"Mütter- und Väterberatung"}},{"type":"Feature","geometry":{"type":"Point","coordinates":[7.437401,46.948461]},"properties":{"name":"Localinomed"}},{"type":"Feature","geometry":{"type":"Point","coordinates":[7.229288,47.124611]},"properties":{"name":"Seespitz"}},{"type":"Feature","geometry":{"type":"Point","coordinates":[7.420685,46.938645]},"properties":{"name":"Weissenstein-Quartier"}},{"type":"Feature","geometry":{"type":"Point","coordinates":[7.602099,47.570496]},"properties":{"name":"Arne & Annett"}},{"type":"Feature","geometry":{"type":"Point","coordinates":[7.242731,47.133786]},"properties":{"name":"Pizzeria Seeland"}},{"type":"Feature","geometry":{"type":"Point","coordinates":[8.833716,47.343439]},"properties":{"name":"Rosinli"}},{"type":"Feature","geometry":{"type":"Point","coordinates":[7.461841,46.953631]},"properties":{"name":"AGI"}},{"type":"Feature","geometry":{"type":"Point","coordinates":[7.448618,46.947413]},"properties":{"name":"Stadt- und Universitätsbibliothel"}},{"type":"Feature","geometry":{"type":"Point","coordinates":[6.629919,46.517469]},"properties":{"name":"Starbucks Lausanne"}},{"type":"Feature","geometry":{"type":"Point","coordinates":[6.63222,46.513831]},"properties":{"name":"Linda"}},{"type":"Feature","geometry":{"type":"Point","coordinates":[7.410949,46.931561]},"properties":{"name":"Reservoir"}},{"type":"Feature","geometry":{"type":"Point","coordinates":[6.145638,45.859786]},"properties":{"name":"Port de Sévrier"}},{"type":"Feature","geometry":{"type":"Point","coordinates":[6.136615,45.866458]},"properties":{"name":"Chemin de Quintal"}},{"type":"Feature","geometry":{"type":"Point","coordinates":[7.444417,46.979594]},"properties":{"name":"Zehendermätteli"}},{"type":"Feature","geometry":{"type":"Point","coordinates":[8.819565,47.377749]},"properties":{"name":"Feuerstelle Isikon"}},{"type":"Feature","geometry":{"type":"Point","coordinates":[7.475016,46.94953]},"properties":{"name":"Zentrum Paul Klee"}},{"type":"Feature","geometry":{"type":"Point","coordinates":[7.46536,46.944081]},"properties":{"name":"Egelsee"}},{"type":"Feature","geometry":{"type":"Point","coordinates":[7.435196,46.945981]},"properties":{"name":"Da Carlo"}},{"type":"Feature","geometry":{"type":"Point","coordinates":[7.435014,46.947164]},"properties":{"name":"Tre Fratelli"}},{"type":"Feature","geometry":{"type":"Point","coordinates":[9.217789,46.731763]},"properties":{"name":"Pitasch"}},{"type":"Feature","geometry":{"type":"Point","coordinates":[6.768619,46.957564]},"properties":{"name":"Champ du Moulin"}},{"type":"Feature","geometry":{"type":"Point","coordinates":[7.449519,46.934525]},"properties":{"name":"Tierpark Dählhölzli"}},{"type":"Feature","geometry":{"type":"Point","coordinates":[6.038232,45.895661]},"properties":{"name":"Gorges du Fier"}},{"type":"Feature","geometry":{"type":"Point","coordinates":[7.421399,46.944802]},"properties":{"name":"Stadtbach"}},{"type":"Feature","geometry":{"type":"Point","coordinates":[7.450093,46.947977]},"properties":{"name":"Buskers"}},{"type":"Feature","geometry":{"type":"Point","coordinates":[7.424076,46.907518]},"properties":{"name":"Schliern"}},{"type":"Feature","geometry":{"type":"Point","coordinates":[7.449943,46.945194]},"properties":{"name":"Schwellenmätteli"}},{"type":"Feature","geometry":{"type":"Point","coordinates":[7.442003,46.957922]},"properties":{"name":"Lorrainebad"}},{"type":"Feature","geometry":{"type":"Point","coordinates":[7.445013,46.965483]},"properties":{"name":"Felsenausteg"}},{"type":"Feature","geometry":{"type":"Point","coordinates":[7.450168,46.923974]},"properties":{"name":"Gurtendorf"}},{"type":"Feature","geometry":{"type":"Point","coordinates":[7.715015,46.795855]},"properties":{"name":"Schwarzenegg"}},{"type":"Feature","geometry":{"type":"Point","coordinates":[7.428271,46.948292]},"properties":{"name":"Restaurant Azzurro"}},{"type":"Feature","geometry":{"type":"Point","coordinates":[7.432809,46.939297]},"properties":{"name":"Villa Stucki"}},{"type":"Feature","geometry":{"type":"Point","coordinates":[8.195629,46.747558]},"properties":{"name":"Wasserwendi"}},{"type":"Feature","geometry":{"type":"Point","coordinates":[8.236914,46.749102]},"properties":{"name":"Mägisalp"}},{"type":"Feature","geometry":{"type":"Point","coordinates":[8.257105,46.737552]},"properties":{"name":"Planplatten"}},{"type":"Feature","geometry":{"type":"Point","coordinates":[8.218138,46.744272]},"properties":{"name":"Bidmi"}},{"type":"Feature","geometry":{"type":"Point","coordinates":[8.209898,46.732732]},"properties":{"name":"Reuti"}},{"type":"Feature","geometry":{"type":"Point","coordinates":[8.1846,46.727198]},"properties":{"name":"Meiringen"}},{"type":"Feature","geometry":{"type":"Point","coordinates":[8.209405,46.71977]},"properties":{"name":"Aareschlucht"}},{"type":"Feature","geometry":{"type":"Point","coordinates":[7.425406,46.941348]},"properties":{"name":"zarbar"}},{"type":"Feature","geometry":{"type":"Point","coordinates":[7.415841,46.920395]},"properties":{"name":"Friedhof Köniz"}},{"type":"Feature","geometry":{"type":"Point","coordinates":[7.706802,46.718688]},"properties":{"name":"Panoramabrücke Sigriswil"}},{"type":"Feature","geometry":{"type":"Point","coordinates":[7.694271,46.719251]},"properties":{"name":"Bühlhubel Aeschlen"}},{"type":"Feature","geometry":{"type":"Point","coordinates":[8.885869,47.294061]},"properties":{"name":"Bachtel"}},{"type":"Feature","geometry":{"type":"Point","coordinates":[8.825412,47.363115]},"properties":{"name":"Hittnau"}},{"type":"Feature","geometry":{"type":"Point","coordinates":[8.755766,47.395168]},"properties":{"name":"Fehraltorf"}},{"type":"Feature","geometry":{"type":"Point","coordinates":[8.905202,47.340742]},"properties":{"name":"Ghöch"}},{"type":"Feature","geometry":{"type":"Point","coordinates":[6.895316,47.140282]},"properties":{"name":"La Ferrière"}},{"type":"Feature","geometry":{"type":"Point","coordinates":[7.425229,46.935638]},"properties":{"name":"Steinhölzli"}},{"type":"Feature","geometry":{"type":"Point","coordinates":[7.238939,47.127458]},"properties":{"name":"Schlosspark"}},{"type":"Feature","geometry":{"type":"Point","coordinates":[7.245223,47.140977]},"properties":{"name":"Stadttheater Biel"}},{"type":"Feature","geometry":{"type":"Point","coordinates":[9.685146,46.780667]},"properties":{"name":"Arosa"}},{"type":"Feature","geometry":{"type":"Point","coordinates":[7.431666,46.9424]},"properties":{"name":"Restaurant Frohegg"}},{"type":"Feature","geometry":{"type":"Point","coordinates":[7.246782,47.142814]},"properties":{"name":"Restaurant De la tour"}},{"type":"Feature","geometry":{"type":"Point","coordinates":[7.242962,47.140264]},"properties":{"name":"Zivilstandsamt Biel"}},{"type":"Feature","geometry":{"type":"Point","coordinates":[7.326679,47.073337]},"properties":{"name":"Hof Markus & Doris"}},{"type":"Feature","geometry":{"type":"Point","coordinates":[7.411357,46.922578]},"properties":{"name":"Gartencenter Heilsarmee"}},{"type":"Feature","geometry":{"type":"Point","coordinates":[8.020427,47.508215]},"properties":{"name":"Frick"}},{"type":"Feature","geometry":{"type":"Point","coordinates":[8.08664,47.507153]},"properties":{"name":"Söhrenhof Bözen"}},{"type":"Feature","geometry":{"type":"Point","coordinates":[7.486024,46.96892]},"properties":{"name":"Gartencenter Wyss"}},{"type":"Feature","geometry":{"type":"Point","coordinates":[7.440984,46.945941]},"properties":{"name":"Kleine Schanze"}},{"type":"Feature","geometry":{"type":"Point","coordinates":[7.342912,46.819034]},"properties":{"name":"Schwarzenburg"}},{"type":"Feature","geometry":{"type":"Point","coordinates":[7.328846,46.767279]},"properties":{"name":"Guggisberg"}},{"type":"Feature","geometry":{"type":"Point","coordinates":[7.333916,46.769877]},"properties":{"name":"Guggershörnli"}},{"type":"Feature","geometry":{"type":"Point","coordinates":[6.129711,45.884851]},"properties":{"name":"Parc animalier"}},{"type":"Feature","geometry":{"type":"Point","coordinates":[6.203027,45.835916]},"properties":{"name":"Libellule"}},{"type":"Feature","geometry":{"type":"Point","coordinates":[8.551236,47.352831]},"properties":{"name":"Seepromenade"}},{"type":"Feature","geometry":{"type":"Point","coordinates":[7.411995,46.962393]},"properties":{"name":"Glasbrunnen"}},{"type":"Feature","geometry":{"type":"Point","coordinates":[6.882398,46.61023]},"properties":{"name":"Bouloz"}},{"type":"Feature","geometry":{"type":"Point","coordinates":[7.717016,46.496369]},"properties":{"name":"Oeschinensee"}},{"type":"Feature","geometry":{"type":"Point","coordinates":[8.780764,47.364391]},"properties":{"name":"Brüll Biergarten"}},{"type":"Feature","geometry":{"type":"Point","coordinates":[8.777856,47.364256]},"properties":{"name":"Polenbadi"}},{"type":"Feature","geometry":{"type":"Point","coordinates":[7.579569,47.548266]},"properties":{"name":"Zolli"}},{"type":"Feature","geometry":{"type":"Point","coordinates":[7.414269,46.921054]},"properties":{"name":"Rossstall Köniz"}},{"type":"Feature","geometry":{"type":"Point","coordinates":[7.420084,46.929004]},"properties":{"name":"Liebefeld Park"}},{"type":"Feature","geometry":{"type":"Point","coordinates":[9.934849,46.573377]},"properties":{"name":"Chamues-ch"}},{"type":"Feature","geometry":{"type":"Point","coordinates":[9.901965,46.521681]},"properties":{"name":"Muottas Muragl"}},{"type":"Feature","geometry":{"type":"Point","coordinates":[9.870486,46.496886]},"properties":{"name":"Stazersee"}},{"type":"Feature","geometry":{"type":"Point","coordinates":[9.933271,46.585604]},"properties":{"name":"Guardaval"}},{"type":"Feature","geometry":{"type":"Point","coordinates":[9.738693,46.412091]},"properties":{"name":"Isola"}},{"type":"Feature","geometry":{"type":"Point","coordinates":[9.845209,46.559509]},"properties":{"name":"Val Bever"}},{"type":"Feature","geometry":{"type":"Point","coordinates":[9.933014,46.426144]},"properties":{"name":"Morteratsch"}},{"type":"Feature","geometry":{"type":"Point","coordinates":[9.871044,46.438981]},"properties":{"name":"Val Roseg"}},{"type":"Feature","geometry":{"type":"Point","coordinates":[9.872847,46.53589]},"properties":{"name":"Samedan"}},{"type":"Feature","geometry":{"type":"Point","coordinates":[7.221939,47.131513]},"properties":{"name":"Räblus"}},{"type":"Feature","geometry":{"type":"Point","coordinates":[7.406051,46.943522]},"properties":{"name":"Haus der Religionen"}},{"type":"Feature","geometry":{"type":"Point","coordinates":[8.181226,47.386703]},"properties":{"name":"Lenzburg"}},{"type":"Feature","geometry":{"type":"Point","coordinates":[8.824661,47.22786]},"properties":{"name":"Eventhouse Rapperswil"}},{"type":"Feature","geometry":{"type":"Point","coordinates":[7.281108,47.123903]},"properties":{"name":"Bodega 25"}},{"type":"Feature","geometry":{"type":"Point","coordinates":[8.527649,47.375319]},"properties":{"name":"Volkshaus Zürich"}},{"type":"Feature","geometry":{"type":"Point","coordinates":[7.326322,47.155058]},"properties":{"name":"Riedrain Safnern"}},{"type":"Feature","geometry":{"type":"Point","coordinates":[8.861911,47.404885]},"properties":{"name":"Töss"}},{"type":"Feature","geometry":{"type":"Point","coordinates":[7.000308,46.213642]},"properties":{"name":"St.Maurice"}},{"type":"Feature","geometry":{"type":"Point","coordinates":[7.434493,46.90007]},"properties":{"name":"Ulmizberg"}},{"type":"Feature","geometry":{"type":"Point","coordinates":[8.57779,47.38574]},"properties":{"name":"Zoo Zürich"}},{"type":"Feature","geometry":{"type":"Point","coordinates":[8.180931,47.414304]},"properties":{"name":"Friedhof Möriken"}},{"type":"Feature","geometry":{"type":"Point","coordinates":[7.45196,46.948124]},"properties":{"name":"Ono"}},{"type":"Feature","geometry":{"type":"Point","coordinates":[7.430679,46.912634]},"properties":{"name":"Köniztal"}},{"type":"Feature","geometry":{"type":"Point","coordinates":[7.364724,46.946366]},"properties":{"name":"Gäbelbach"}},{"type":"Feature","geometry":{"type":"Point","coordinates":[8.182856,47.420041]},"properties":{"name":"Möriken"}},{"type":"Feature","geometry":{"type":"Point","coordinates":[6.247101,45.814145]},"properties":{"name":"Col de la Forclaz"}},{"type":"Feature","geometry":{"type":"Point","coordinates":[7.438747,46.924073]},"properties":{"name":"Grüenebode"}},{"type":"Feature","geometry":{"type":"Point","coordinates":[8.172881,47.384667]},"properties":{"name":"Lenzburg 2"}},{"type":"Feature","geometry":{"type":"Point","coordinates":[7.491345,46.92215]},"properties":{"name":"Belpmoos"}},{"type":"Feature","geometry":{"type":"Point","coordinates":[7.465602,46.877274]},"properties":{"name":"Zimmerwald"}},{"type":"Feature","geometry":{"type":"Point","coordinates":[7.380517,46.915609]},"properties":{"name":"Herzwil"}},{"type":"Feature","geometry":{"type":"Point","coordinates":[7.363184,46.931576]},"properties":{"name":"Chäs und Brot"}},{"type":"Feature","geometry":{"type":"Point","coordinates":[7.419398,46.906169]},"properties":{"name":"Schliern"}},{"type":"Feature","geometry":{"type":"Point","coordinates":[7.520136,46.936078]},"properties":{"name":"Gümligen"}},{"type":"Feature","geometry":{"type":"Point","coordinates":[7.24775,47.12411]},"properties":{"name":"Gerberweg"}},{"type":"Feature","geometry":{"type":"Point","coordinates":[7.450954,46.959046]},"properties":{"name":"Spielplatz Breitenrain"}},{"type":"Feature","geometry":{"type":"Point","coordinates":[7.358485,46.966823]},"properties":{"name":"Wohleibrücke"}},{"type":"Feature","geometry":{"type":"Point","coordinates":[8.022251,47.455092]},"properties":{"name":"Waldhaus Wölflinswil"}},{"type":"Feature","geometry":{"type":"Point","coordinates":[8.848023,47.367831]},"properties":{"name":"Leböl"}},{"type":"Feature","geometry":{"type":"Point","coordinates":[7.279944,47.192279]},"properties":{"name":"Plagne"}},{"type":"Feature","geometry":{"type":"Point","coordinates":[7.289643,47.064948]},"properties":{"name":"Alte Aare"}},{"type":"Feature","geometry":{"type":"Point","coordinates":[9.32795,47.291427]},"properties":{"name":"Kronberg"}},{"type":"Feature","geometry":{"type":"Point","coordinates":[9.286481,47.318132]},"properties":{"name":"Urnäsch"}},{"type":"Feature","geometry":{"type":"Point","coordinates":[9.274843,47.282606]},"properties":{"name":"Lillyweg"}},{"type":"Feature","geometry":{"type":"Point","coordinates":[7.162743,46.821222]},"properties":{"name":"Auberge aux 4 vents"}},{"type":"Feature","geometry":{"type":"Point","coordinates":[7.114562,46.927676]},"properties":{"name":"Murten"}},{"type":"Feature","geometry":{"type":"Point","coordinates":[7.291059,47.111086]},"properties":{"name":"Petinesca"}},{"type":"Feature","geometry":{"type":"Point","coordinates":[8.03018,47.377052]},"properties":{"name":"Aarau Roggenhausen"}},{"type":"Feature","geometry":{"type":"Point","coordinates":[7.11442,47.052333]},"properties":{"name":"Heidenweg"}},{"type":"Feature","geometry":{"type":"Point","coordinates":[8.066899,47.391344]},"properties":{"name":"Buchs"}},{"type":"Feature","geometry":{"type":"Point","coordinates":[7.058311,46.125842]},"properties":{"name":"Western City"}},{"type":"Feature","geometry":{"type":"Point","coordinates":[8.876863,47.394839]},"properties":{"name":"Manzenhub"}},{"type":"Feature","geometry":{"type":"Point","coordinates":[7.277619,47.153562]},"properties":{"name":"Tissot-Arena"}},{"type":"Feature","geometry":{"type":"Point","coordinates":[7.373018,46.945374]},"properties":{"name":"Bernaqua"}},{"type":"Feature","geometry":{"type":"Point","coordinates":[6.933172,46.990945]},"properties":{"name":"Neuchâtel"}},{"type":"Feature","geometry":{"type":"Point","coordinates":[7.768011,47.239839]},"properties":{"name":"Aarwangen"}},{"type":"Feature","geometry":{"type":"Point","coordinates":[7.744557,47.236664]},"properties":{"name":"Kieswerk Risi"}},{"type":"Feature","geometry":{"type":"Point","coordinates":[7.441412,46.458999]},"properties":{"name":"Lenk"}},{"type":"Feature","geometry":{"type":"Point","coordinates":[7.408776,46.428655]},"properties":{"name":"Leiterli"}},{"type":"Feature","geometry":{"type":"Point","coordinates":[7.49045,46.414392]},"properties":{"name":"Siebenbrünne"}},{"type":"Feature","geometry":{"type":"Point","coordinates":[7.04193,46.876899]},"properties":{"name":"Avenches"}},{"type":"Feature","geometry":{"type":"Point","coordinates":[7.086328,46.953927]},"properties":{"name":"Vully-Höhlen"}},{"type":"Feature","geometry":{"type":"Point","coordinates":[7.077589,46.909889]},"properties":{"name":"Faoug"}},{"type":"Feature","geometry":{"type":"Point","coordinates":[7.158246,47.158301]},"properties":{"name":"Métairie d'Evilard"}},{"type":"Feature","geometry":{"type":"Point","coordinates":[8.710499,49.412112]},"properties":{"name":"Heidelberg"}},{"type":"Feature","geometry":{"type":"Point","coordinates":[8.273608,49.999462]},"properties":{"name":"Mainz"}},{"type":"Feature","geometry":{"type":"Point","coordinates":[8.301899,49.895666]},"properties":{"name":"Lörzweiler"}},{"type":"Feature","geometry":{"type":"Point","coordinates":[8.335512,49.889527]},"properties":{"name":"Brudersberg"}},{"type":"Feature","geometry":{"type":"Point","coordinates":[8.19271,50.103161]},"properties":{"name":"Fasanerie Wiesbaden"}},{"type":"Feature","geometry":{"type":"Point","coordinates":[7.247597,47.106977]},"properties":{"name":"Bellmund"}},{"type":"Feature","geometry":{"type":"Point","coordinates":[7.698973,46.71457]},"properties":{"name":"Gunten"}},{"type":"Feature","geometry":{"type":"Point","coordinates":[8.865258,47.582864]},"properties":{"name":"Kartause Ittingen"}},{"type":"Feature","geometry":{"type":"Point","coordinates":[6.201365,45.819378]},"properties":{"name":"Le Taillefer"}},{"type":"Feature","geometry":{"type":"Point","coordinates":[8.393753,46.8202]},"properties":{"name":"Engelberg"}},{"type":"Feature","geometry":{"type":"Point","coordinates":[8.411038,46.841259]},"properties":{"name":"Härzlisee"}},{"type":"Feature","geometry":{"type":"Point","coordinates":[8.392357,46.791022]},"properties":{"name":"Trüebsee"}},{"type":"Feature","geometry":{"type":"Point","coordinates":[8.860162,46.213205]},"properties":{"name":"Berzona"}},{"type":"Feature","geometry":{"type":"Point","coordinates":[8.838956,46.258406]},"properties":{"name":"Lavertezzo"}},{"type":"Feature","geometry":{"type":"Point","coordinates":[8.790927,46.297159]},"properties":{"name":"Brione"}},{"type":"Feature","geometry":{"type":"Point","coordinates":[8.802463,46.320861]},"properties":{"name":"Gerra"}},{"type":"Feature","geometry":{"type":"Point","coordinates":[8.786682,46.350243]},"properties":{"name":"Sonogno"}},{"type":"Feature","geometry":{"type":"Point","coordinates":[6.633871,46.508653]},"properties":{"name":"Musée Olympique"}},{"type":"Feature","geometry":{"type":"Point","coordinates":[6.635343,46.522563]},"properties":{"name":"Cathedrale Lausanne"}},{"type":"Feature","geometry":{"type":"Point","coordinates":[6.638687,46.536822]},"properties":{"name":"Sauvabelin"}},{"type":"Feature","geometry":{"type":"Point","coordinates":[7.784594,46.939056]},"properties":{"name":"Langnau"}},{"type":"Feature","geometry":{"type":"Point","coordinates":[7.84957,46.920226]},"properties":{"name":"Kambly Trubschachen"}},{"type":"Feature","geometry":{"type":"Point","coordinates":[9.175511,47.658386]},"properties":{"name":"Konstanz"}},{"type":"Feature","geometry":{"type":"Point","coordinates":[9.196265,47.70509]},"properties":{"name":"Insel Mainau"}},{"type":"Feature","geometry":{"type":"Point","coordinates":[8.611974,47.679195]},"properties":{"name":"Rheinfall"}},{"type":"Feature","geometry":{"type":"Point","coordinates":[8.793421,47.221552]},"properties":{"name":"Lützelau"}},{"type":"Feature","geometry":{"type":"Point","coordinates":[7.020799,46.121248]},"properties":{"name":"Salvan"}},{"type":"Feature","geometry":{"type":"Point","coordinates":[7.022181,46.127978]},"properties":{"name":"Les Granges"}},{"type":"Feature","geometry":{"type":"Point","coordinates":[7.009607,46.139116]},"properties":{"name":"Vallon de Van"}},{"type":"Feature","geometry":{"type":"Point","coordinates":[7.011664,46.112377]},"properties":{"name":"Les Marécottes"}},{"type":"Feature","geometry":{"type":"Point","coordinates":[6.993747,46.117942]},"properties":{"name":"La Creusaz"}},{"type":"Feature","geometry":{"type":"Point","coordinates":[6.995101,46.104608]},"properties":{"name":"Gorges du Triège"}},{"type":"Feature","geometry":{"type":"Point","coordinates":[6.98118,46.085348]},"properties":{"name":"Finhaut"}},{"type":"Feature","geometry":{"type":"Point","coordinates":[6.932559,46.032554]},"properties":{"name":"Vallorcine"}},{"type":"Feature","geometry":{"type":"Point","coordinates":[9.152613,45.184779]},"properties":{"name":"Pavia"}},{"type":"Feature","geometry":{"type":"Point","coordinates":[9.393383,44.275351]},"properties":{"name":"Sestri Levante"}},{"type":"Feature","geometry":{"type":"Point","coordinates":[9.832748,44.051065]},"properties":{"name":"Porto Venere"}},{"type":"Feature","geometry":{"type":"Point","coordinates":[9.405608,44.25464]},"properties":{"name":"Punta Manara"}},{"type":"Feature","geometry":{"type":"Point","coordinates":[9.229479,44.34791]},"properties":{"name":"Rapallo"}},{"type":"Feature","geometry":{"type":"Point","coordinates":[9.215649,44.335688]},"properties":{"name":"Santa Margherita"}},{"type":"Feature","geometry":{"type":"Point","coordinates":[8.932232,44.405378]},"properties":{"name":"Genua"}},{"type":"Feature","geometry":{"type":"Point","coordinates":[7.533969,47.224319]},"properties":{"name":"Verenaschlucht"}},{"type":"Feature","geometry":{"type":"Point","coordinates":[8.06574,46.388828]},"properties":{"name":"Bettmeralp"}},{"type":"Feature","geometry":{"type":"Point","coordinates":[8.026998,46.377691]},"properties":{"name":"Riederalp"}},{"type":"Feature","geometry":{"type":"Point","coordinates":[8.102813,46.412597]},"properties":{"name":"Fiescheralp"}},{"type":"Feature","geometry":{"type":"Point","coordinates":[8.093171,46.427181]},"properties":{"name":"Eggishorn"}},{"type":"Feature","properties":{"name":"Turren"},"geometry":{"type":"Point","coordinates":[8.130306,46.789605]}},{"type":"Feature","properties":{"name":"Breitenfeld"},"geometry":{"type":"Point","coordinates":[8.110106,46.788987]}},{"type":"Feature","properties":{"name":"Lungern"},"geometry":{"type":"Point","coordinates":[8.163474,46.786284]}},{"type":"Feature","properties":{"name":"Chocowelt Aeschbacher"},"geometry":{"type":"Point","coordinates":[8.373523,47.105518]}}]}